HORIZONS-3E             
1 43633U 18074B   25334.11089288 -.00000009  00000+0  00000+0 0  9991
2 43633   0.0288 201.7980 0000793  80.0333 356.3686  1.00269413 26340
AT&T T-16               
1 44333U 19034A   25333.98609213 -.00000094  00000+0  00000+0 0  9990
2 44333   0.0336  89.5500 0000606  45.3843 188.3371  1.00270595 23631
INTELSAT 39 (IS-39)     
1 44476U 19049B   25334.10114105  .00000053  00000+0  00000+0 0  9994
2 44476   0.0117 290.2296 0000823 255.1267 342.2593  1.00279063 23132
GALAXY 33 (G-33)        
1 54026U 22128A   25334.05109251  .00000100  00000+0  00000+0 0  9991
2 54026   0.0134 325.4463 0001841 277.3506  71.7902  1.00271752 11742
GALAXY 34 (G-34)        
1 54027U 22128B   25334.05187252  .00000000  00000+0  00000+0 0  9998
2 54027   0.0185 334.1307 0001491 270.4275  74.3490  1.00270754 11912
GALAXY 31 (G-31)        
1 54243U 22153A   25334.05343252  .00000034  00000+0  00000+0 0  9997
2 54243   0.0146 268.0617 0001748 351.7339  67.6381  1.00271508  5136
GALAXY 32 (G-32)        
1 54244U 22153B   25332.91787977 -.00000154  00000+0  00000+0 0  9991
2 54244   0.0088 353.8823 0002159 310.3444   3.2961  1.00271531 11132
GALAXY 35 (G-35)        
1 54741U 22170A   25333.98765213 -.00000141  00000+0  00000+0 0  9995
2 54741   0.0147 272.2778 0002503 342.4432  76.8819  1.00270894 10890
