{
  "type": "FeatureCollection",
  "features": [
    {
      "type": "Feature",
      "properties": {
        "OBJECT_NAME": "HORIZONS-3E",
        "OBJECT_ID": "2018-074B",
        "EPOCH": "2025-11-30T02:39:41.144832",
        "MEAN_MOTION": 1.00269413,
        "ECCENTRICITY": 7.93e-05,
        "INCLINATION": 0.0288,
        "RA_OF_ASC_NODE": 201.798,
        "ARG_OF_PERICENTER": 80.0333,
        "MEAN_ANOMALY": 356.3686,
        "EPHEMERIS_TYPE": 0,
        "CLASSIFICATION_TYPE": "U",
        "NORAD_CAT_ID": 43633,
        "ELEMENT_SET_NO": 999,
        "REV_AT_EPOCH": 2634,
        "BSTAR": 0,
        "MEAN_MOTION_DOT": -9e-08,
        "MEAN_MOTION_DDOT": 0,
        "norad_id": 43633,
        "name": "HORIZONS-3E",
        "group": "intelsat",
        "longitude_deg": NaN,
        "latitude_deg": NaN,
        "alt_km": NaN,
        "orbit_class": "HEO",
        "timestamp": "2025-11-30T09:33:02.508193+00:00"
      },
      "geometry": {
        "type": "Point",
        "coordinates": [
          NaN,
          NaN
        ]
      }
    },
    {
      "type": "Feature",
      "properties": {
        "OBJECT_NAME": "AT&T T-16",
        "OBJECT_ID": "2019-034A",
        "EPOCH": "2025-11-29T23:39:58.360032",
        "MEAN_MOTION": 1.00270595,
        "ECCENTRICITY": 6.06e-05,
        "INCLINATION": 0.0336,
        "RA_OF_ASC_NODE": 89.55,
        "ARG_OF_PERICENTER": 45.3843,
        "MEAN_ANOMALY": 188.3371,
        "EPHEMERIS_TYPE": 0,
        "CLASSIFICATION_TYPE": "U",
        "NORAD_CAT_ID": 44333,
        "ELEMENT_SET_NO": 999,
        "REV_AT_EPOCH": 2363,
        "BSTAR": 0,
        "MEAN_MOTION_DOT": -9.4e-07,
        "MEAN_MOTION_DDOT": 0,
        "norad_id": 44333,
        "name": "AT&T T-16",
        "group": "intelsat",
        "longitude_deg": NaN,
        "latitude_deg": NaN,
        "alt_km": NaN,
        "orbit_class": "HEO",
        "timestamp": "2025-11-30T09:33:02.509134+00:00"
      },
      "geometry": {
        "type": "Point",
        "coordinates": [
          NaN,
          NaN
        ]
      }
    },
    {
      "type": "Feature",
      "properties": {
        "OBJECT_NAME": "INTELSAT 39 (IS-39)",
        "OBJECT_ID": "2019-049B",
        "EPOCH": "2025-11-30T02:25:38.586720",
        "MEAN_MOTION": 1.00279063,
        "ECCENTRICITY": 8.23e-05,
        "INCLINATION": 0.0117,
        "RA_OF_ASC_NODE": 290.2296,
        "ARG_OF_PERICENTER": 255.1267,
        "MEAN_ANOMALY": 342.2593,
        "EPHEMERIS_TYPE": 0,
        "CLASSIFICATION_TYPE": "U",
        "NORAD_CAT_ID": 44476,
        "ELEMENT_SET_NO": 999,
        "REV_AT_EPOCH": 2313,
        "BSTAR": 0,
        "MEAN_MOTION_DOT": 5.3e-07,
        "MEAN_MOTION_DDOT": 0,
        "norad_id": 44476,
        "name": "INTELSAT 39 (IS-39)",
        "group": "intelsat",
        "longitude_deg": NaN,
        "latitude_deg": NaN,
        "alt_km": NaN,
        "orbit_class": "HEO",
        "timestamp": "2025-11-30T09:33:02.509291+00:00"
      },
      "geometry": {
        "type": "Point",
        "coordinates": [
          NaN,
          NaN
        ]
      }
    },
    {
      "type": "Feature",
      "properties": {
        "OBJECT_NAME": "GALAXY 33 (G-33)",
        "OBJECT_ID": "2022-128A",
        "EPOCH": "2025-11-30T01:13:34.392864",
        "MEAN_MOTION": 1.00271752,
        "ECCENTRICITY": 0.0001841,
        "INCLINATION": 0.0134,
        "RA_OF_ASC_NODE": 325.4463,
        "ARG_OF_PERICENTER": 277.3506,
        "MEAN_ANOMALY": 71.7902,
        "EPHEMERIS_TYPE": 0,
        "CLASSIFICATION_TYPE": "U",
        "NORAD_CAT_ID": 54026,
        "ELEMENT_SET_NO": 999,
        "REV_AT_EPOCH": 1174,
        "BSTAR": 0,
        "MEAN_MOTION_DOT": 1e-06,
        "MEAN_MOTION_DDOT": 0,
        "norad_id": 54026,
        "name": "GALAXY 33 (G-33)",
        "group": "intelsat",
        "longitude_deg": NaN,
        "latitude_deg": NaN,
        "alt_km": NaN,
        "orbit_class": "HEO",
        "timestamp": "2025-11-30T09:33:02.531123+00:00"
      },
      "geometry": {
        "type": "Point",
        "coordinates": [
          NaN,
          NaN
        ]
      }
    },
    {
      "type": "Feature",
      "properties": {
        "OBJECT_NAME": "GALAXY 34 (G-34)",
        "OBJECT_ID": "2022-128B",
        "EPOCH": "2025-11-30T01:14:41.785728",
        "MEAN_MOTION": 1.00270754,
        "ECCENTRICITY": 0.0001491,
        "INCLINATION": 0.0185,
        "RA_OF_ASC_NODE": 334.1307,
        "ARG_OF_PERICENTER": 270.4275,
        "MEAN_ANOMALY": 74.349,
        "EPHEMERIS_TYPE": 0,
        "CLASSIFICATION_TYPE": "U",
        "NORAD_CAT_ID": 54027,
        "ELEMENT_SET_NO": 999,
        "REV_AT_EPOCH": 1191,
        "BSTAR": 0,
        "MEAN_MOTION_DOT": 0,
        "MEAN_MOTION_DDOT": 0,
        "norad_id": 54027,
        "name": "GALAXY 34 (G-34)",
        "group": "intelsat",
        "longitude_deg": NaN,
        "latitude_deg": NaN,
        "alt_km": NaN,
        "orbit_class": "HEO",
        "timestamp": "2025-11-30T09:33:02.531131+00:00"
      },
      "geometry": {
        "type": "Point",
        "coordinates": [
          NaN,
          NaN
        ]
      }
    },
    {
      "type": "Feature",
      "properties": {
        "OBJECT_NAME": "GALAXY 31 (G-31)",
        "OBJECT_ID": "2022-153A",
        "EPOCH": "2025-11-30T01:16:56.569728",
        "MEAN_MOTION": 1.00271508,
        "ECCENTRICITY": 0.0001748,
        "INCLINATION": 0.0146,
        "RA_OF_ASC_NODE": 268.0617,
        "ARG_OF_PERICENTER": 351.7339,
        "MEAN_ANOMALY": 67.6381,
        "EPHEMERIS_TYPE": 0,
        "CLASSIFICATION_TYPE": "U",
        "NORAD_CAT_ID": 54243,
        "ELEMENT_SET_NO": 999,
        "REV_AT_EPOCH": 513,
        "BSTAR": 0,
        "MEAN_MOTION_DOT": 3.4e-07,
        "MEAN_MOTION_DDOT": 0,
        "norad_id": 54243,
        "name": "GALAXY 31 (G-31)",
        "group": "intelsat",
        "longitude_deg": NaN,
        "latitude_deg": NaN,
        "alt_km": NaN,
        "orbit_class": "HEO",
        "timestamp": "2025-11-30T09:33:02.532154+00:00"
      },
      "geometry": {
        "type": "Point",
        "coordinates": [
          NaN,
          NaN
        ]
      }
    },
    {
      "type": "Feature",
      "properties": {
        "OBJECT_NAME": "GALAXY 32 (G-32)",
        "OBJECT_ID": "2022-153B",
        "EPOCH": "2025-11-28T22:01:44.812128",
        "MEAN_MOTION": 1.00271531,
        "ECCENTRICITY": 0.00021599,
        "INCLINATION": 0.0088,
        "RA_OF_ASC_NODE": 353.8823,
        "ARG_OF_PERICENTER": 310.3444,
        "MEAN_ANOMALY": 3.2961,
        "EPHEMERIS_TYPE": 0,
        "CLASSIFICATION_TYPE": "U",
        "NORAD_CAT_ID": 54244,
        "ELEMENT_SET_NO": 999,
        "REV_AT_EPOCH": 1113,
        "BSTAR": 0,
        "MEAN_MOTION_DOT": -1.54e-06,
        "MEAN_MOTION_DDOT": 0,
        "norad_id": 54244,
        "name": "GALAXY 32 (G-32)",
        "group": "intelsat",
        "longitude_deg": NaN,
        "latitude_deg": NaN,
        "alt_km": NaN,
        "orbit_class": "HEO",
        "timestamp": "2025-11-30T09:33:02.532161+00:00"
      },
      "geometry": {
        "type": "Point",
        "coordinates": [
          NaN,
          NaN
        ]
      }
    },
    {
      "type": "Feature",
      "properties": {
        "OBJECT_NAME": "GALAXY 35 (G-35)",
        "OBJECT_ID": "2022-170A",
        "EPOCH": "2025-11-29T23:42:13.144032",
        "MEAN_MOTION": 1.00270894,
        "ECCENTRICITY": 0.0002503,
        "INCLINATION": 0.0147,
        "RA_OF_ASC_NODE": 272.2778,
        "ARG_OF_PERICENTER": 342.4432,
        "MEAN_ANOMALY": 76.8819,
        "EPHEMERIS_TYPE": 0,
        "CLASSIFICATION_TYPE": "U",
        "NORAD_CAT_ID": 54741,
        "ELEMENT_SET_NO": 999,
        "REV_AT_EPOCH": 1089,
        "BSTAR": 0,
        "MEAN_MOTION_DOT": -1.41e-06,
        "MEAN_MOTION_DDOT": 0,
        "norad_id": 54741,
        "name": "GALAXY 35 (G-35)",
        "group": "intelsat",
        "longitude_deg": NaN,
        "latitude_deg": NaN,
        "alt_km": NaN,
        "orbit_class": "HEO",
        "timestamp": "2025-11-30T09:33:02.532630+00:00"
      },
      "geometry": {
        "type": "Point",
        "coordinates": [
          NaN,
          NaN
        ]
      }
    }
  ]
}